OBJECT_NAME,OBJECT_ID,EPOCH,MEAN_MOTION,ECCENTRICITY,INCLINATION,RA_OF_ASC_NODE,ARG_OF_PERICENTER,MEAN_ANOMALY,EPHEMERIS_TYPE,CLASSIFICATION_TYPE,NORAD_CAT_ID,ELEMENT_SET_NO,REV_AT_EPOCH,BSTAR,MEAN_MOTION_DOT,MEAN_MOTION_DDOT
WT 1B,2019-032G,2026-07-04T06:28:50.802816,15.27536801,.00095806,44.9722,327.6732,334.4444,25.5964,0,U,44316,999,38969,.52292987E-3,.14098E-3,0
PROX-1,2019-036A,2026-07-04T04:36:37.319904,14.91047605,.00052876,23.9962,0.6253,235.3370,124.6631,0,U,44339,999,37601,.18866535E-2,.19453E-3,0
NPSAT1,2019-036B,2026-07-04T04:04:40.897920,14.74740071,.00074386,23.9986,107.1362,45.4264,314.6839,0,U,44340,999,37500,.10845269E-2,.7663E-4,0
FORMOSAT 7-3,2019-036E,2026-07-03T23:16:24.137184,15.09923503,.00009998,23.9995,63.0224,106.4708,253.5906,0,U,44343,999,38578,.31768152E-3,.5636E-4,0
FORMOSAT 7-1,2019-036L,2026-07-03T09:10:52.935168,14.96577129,.00009375,23.9984,283.2079,34.4718,325.5843,0,U,44349,999,38708,.23089499E-3,.2996E-4,0
FORMOSAT 7-4,2019-036M,2026-07-03T17:43:25.812480,14.96572500,.0001351,23.9998,342.9130,37.4977,322.5618,0,U,44350,999,38655,.25775984E-3,.3309E-4,0
FORMOSAT 7-2,2019-036N,2026-07-03T21:27:38.378016,14.96570904,.00008205,23.9996,36.1766,42.1498,317.9066,0,U,44351,999,38609,.2594701E-3,.3328E-4,0
FORMOSAT 7-6,2019-036Q,2026-07-04T05:27:08.400384,14.96580467,.00006821,23.9965,214.7467,313.8083,46.2361,0,U,44353,999,38437,.22111602E-3,.2882E-4,0
FORMOSAT 7-5,2019-036V,2026-07-03T00:06:12.806496,14.96550633,.000042,23.9979,161.7411,59.9486,300.1056,0,U,44358,999,38472,.14554222E-3,.1999E-4,0
METEOR-M2 2,2019-038A,2026-07-04T05:51:40.289184,14.24370807,.00013437,98.9152,172.7821,23.1634,336.9605,0,U,44387,999,36372,.13210239E-3,.26E-5,0
GLOBAL-4,2019-054E,2026-07-04T05:54:15.248448,15.66006811,.00039022,45.0047,137.8551,110.6430,249.4887,0,U,44499,999,38303,.72618731E-3,.76498E-3,0
ZY-1 02D,2019-059A,2026-07-04T06:53:16.038816,14.35265983,.00036405,98.6715,246.7900,339.4092,20.6946,0,U,44528,999,35679,.64034111E-4,.138E-5,0
TAURUS-1 (JINNIUZUO 1),2019-059C,2026-07-04T07:15:29.964960,14.72275745,.00073588,98.6433,351.1944,254.0719,105.9676,0,U,44530,999,36116,.9021025E-3,.5648E-4,0
ZHUHAI-1 03B,2019-060C,2026-07-04T05:47:25.308096,15.55075971,.00077257,97.5549,343.9401,247.5873,112.4563,0,U,44536,999,37897,.64936176E-3,.43777E-3,0
ZHUHAI-1 03D,2019-060E,2026-07-04T07:54:01.792224,15.50778213,.00068838,97.5402,336.0047,232.3253,127.7375,0,U,44538,999,37873,.79937802E-3,.4619E-3,0
ZHUHAI-1 03E,2019-060F,2026-07-04T07:37:37.461216,15.41629208,.00046809,97.5637,335.8670,326.7886,33.3066,0,U,44539,999,37840,.55945801E-3,.23515E-3,0
GAOFEN-7,2019-072A,2026-07-04T07:12:26.390880,15.21392217,.00169641,97.2415,246.1209,341.8598,18.2031,0,U,44703,999,37024,.23324729E-3,.5184E-4,0
JILIN-1 GAOFEN 2A,2019-075A,2026-07-04T03:56:39.890976,15.39773072,.0006254,97.4962,269.3558,34.6953,325.4699,0,U,44777,999,36749,.44639153E-3,.17622E-3,0
NINGXIA-1 1,2019-076A,2026-07-04T06:48:08.003808,14.02040882,.00115691,45.0054,103.4510,241.9318,118.0346,0,U,44779,999,34025,.8699978E-4,.4E-7,0
NINGXIA-1 5,2019-076E,2026-07-04T07:06:25.727904,14.02088371,.00112024,45.0053,102.7292,232.9758,127.0052,0,U,44783,999,34017,.34618302E-4,-.76E-6,0
KL-ALPHA A,2019-077A,2026-07-04T07:30:27.993600,13.56044651,.00131603,88.9232,220.6921,63.9781,296.2727,0,U,44785,999,32805,.45810896E-4,.44E-6,0
CARTOSAT-3,2019-081A,2026-07-04T06:45:54.953856,15.19259456,.00135177,97.4291,246.8734,94.9376,265.3402,0,U,44804,999,36606,.1360604E-3,.2806E-4,0
JILIN-1 GAOFEN 2B,2019-086A,2026-07-04T04:31:35.808096,15.20900947,.00125197,97.4873,257.0745,257.7990,102.1843,0,U,44836,999,36307,.3383079E-3,.7427E-4,0
TIANQIN 1 (CAS-6),2019-093A,2026-07-04T06:50:29.304096,14.95514257,.00110211,97.7801,269.0026,3.1354,356.9933,0,U,44879,999,35460,.14934327E-3,.1598E-4,0
ETRSS-1,2019-093B,2026-07-04T06:53:06.671328,14.95957985,.00112117,97.7817,269.4784,3.0297,357.0990,0,U,44880,999,35461,.22709507E-3,.2488E-4,0
TIANYAN 01,2019-093C,2026-07-04T06:38:20.222880,14.86545176,.00144444,97.7524,257.0916,35.7795,324.4386,0,U,44881,999,35395,.80074926E-4,.657E-5,0
TIANYAN 02,2019-093D,2026-07-04T06:27:57.889728,15.05434632,.00126734,97.7944,280.2253,329.4955,30.5533,0,U,44882,999,35518,.63150448E-3,.9023E-4,0
CBERS 4A,2019-093E,2026-07-04T07:31:21.983232,14.81428159,.00007973,98.0185,252.7682,132.1052,228.0229,0,U,44883,999,35361,.7874817E-4,.563E-5,0
