WT 1B                   
1 44316U 19032G   26185.27003244  .00014098  00000+0  52293-3 0  9992
2 44316  44.9722 327.6732 0009580 334.4444  25.5964 15.27536801389690
PROX-1                  
1 44339U 19036A   26185.19209861  .00019453  00000+0  18867-2 0  9993
2 44339  23.9962   0.6253 0005287 235.3370 124.6631 14.91047605376014
NPSAT1                  
1 44340U 19036B   26185.16991780  .00007663  00000+0  10845-2 0  9998
2 44340  23.9986 107.1362 0007438  45.4264 314.6839 14.74740071375005
FORMOSAT 7-3            
1 44343U 19036E   26184.96972381  .00005636  00000+0  31768-3 0  9990
2 44343  23.9995  63.0224 0000999 106.4708 253.5906 15.09923503385785
FORMOSAT 7-1            
1 44349U 19036L   26184.38255712  .00002996  00000+0  23089-3 0  9997
2 44349  23.9984 283.2079 0000937  34.4718 325.5843 14.96577129387085
FORMOSAT 7-4            
1 44350U 19036M   26184.73849320  .00003309  00000+0  25776-3 0  9996
2 44350  23.9998 342.9130 0001351  37.4977 322.5618 14.96572500386550
FORMOSAT 7-2            
1 44351U 19036N   26184.89419419  .00003328  00000+0  25947-3 0  9997
2 44351  23.9996  36.1766 0000820  42.1498 317.9066 14.96570904386097
FORMOSAT 7-6            
1 44353U 19036Q   26185.22718056  .00002882  00000+0  22112-3 0  9991
2 44353  23.9965 214.7467 0000682 313.8083  46.2361 14.96580467384375
FORMOSAT 7-5            
1 44358U 19036V   26184.00431489  .00001999  00000+0  14554-3 0  9992
2 44358  23.9979 161.7411 0000420  59.9486 300.1056 14.96550633384724
METEOR-M2 2             
1 44387U 19038A   26185.24421631  .00000260  00000+0  13210-3 0  9999
2 44387  98.9152 172.7821 0001343  23.1634 336.9605 14.24370807363729
GLOBAL-4                
1 44499U 19054E   26185.24600982  .00076498  00000+0  72619-3 0  9993
2 44499  45.0047 137.8551 0003902 110.6430 249.4887 15.66006811383034
ZY-1 02D                
1 44528U 19059A   26185.28699119  .00000138  00000+0  64034-4 0  9996
2 44528  98.6715 246.7900 0003640 339.4092  20.6946 14.35265983356795
TAURUS-1 (JINNIUZUO 1)  
1 44530U 19059C   26185.30243015  .00005648  00000+0  90210-3 0  9997
2 44530  98.6433 351.1944 0007358 254.0719 105.9676 14.72275745361164
ZHUHAI-1 03B            
1 44536U 19060C   26185.24126514  .00043777  00000+0  64936-3 0  9993
2 44536  97.5549 343.9401 0007725 247.5873 112.4563 15.55075971378975
ZHUHAI-1 03D            
1 44538U 19060E   26185.32918741  .00046190  00000+0  79938-3 0  9995
2 44538  97.5402 336.0047 0006883 232.3253 127.7375 15.50778213378730
ZHUHAI-1 03E            
1 44539U 19060F   26185.31779469  .00023515  00000+0  55946-3 0  9996
2 44539  97.5637 335.8670 0004680 326.7886  33.3066 15.41629208378405
GAOFEN-7                
1 44703U 19072A   26185.30030545  .00005184  00000+0  23325-3 0  9994
2 44703  97.2415 246.1209 0016964 341.8598  18.2031 15.21392217370240
JILIN-1 GAOFEN 2A       
1 44777U 19075A   26185.16435059  .00017622  00000+0  44639-3 0  9992
2 44777  97.4962 269.3558 0006254  34.6953 325.4699 15.39773072367494
NINGXIA-1 1             
1 44779U 19076A   26185.28342597  .00000004  00000+0  87000-4 0  9998
2 44779  45.0054 103.4510 0011569 241.9318 118.0346 14.02040882340251
NINGXIA-1 5             
1 44783U 19076E   26185.29613111 -.00000076  00000+0  34618-4 0  9994
2 44783  45.0053 102.7292 0011202 232.9758 127.0052 14.02088371340176
KL-ALPHA A              
1 44785U 19077A   26185.31282400  .00000044  00000+0  45811-4 0  9994
2 44785  88.9232 220.6921 0013160  63.9781 296.2727 13.56044651328057
CARTOSAT-3              
1 44804U 19081A   26185.28188604  .00002806  00000+0  13606-3 0  9992
2 44804  97.4291 246.8734 0013517  94.9376 265.3402 15.19259456366063
JILIN-1 GAOFEN 2B       
1 44836U 19086A   26185.18860889  .00007427  00000+0  33831-3 0  9999
2 44836  97.4873 257.0745 0012519 257.7990 102.1843 15.20900947363077
TIANQIN 1 (CAS-6)       
1 44879U 19093A   26185.28506139  .00001598  00000+0  14934-3 0  9996
2 44879  97.7801 269.0026 0011021   3.1354 356.9933 14.95514257354601
ETRSS-1                 
1 44880U 19093B   26185.28688277  .00002488  00000+0  22710-3 0  9992
2 44880  97.7817 269.4784 0011211   3.0297 357.0990 14.95957985354616
TIANYAN 01              
1 44881U 19093C   26185.27662295  .00000657  00000+0  80075-4 0  9999
2 44881  97.7524 257.0916 0014444  35.7795 324.4386 14.86545176353956
TIANYAN 02              
1 44882U 19093D   26185.26942002  .00009023  00000+0  63150-3 0  9996
2 44882  97.7944 280.2253 0012673 329.4955  30.5533 15.05434632355180
CBERS 4A                
1 44883U 19093E   26185.31344888  .00000563  00000+0  78748-4 0  9991
2 44883  98.0185 252.7682 0000797 132.1052 228.0229 14.81428159353615
